[{"OBJECT_NAME":"JILIN-1 GAOFEN 3J","OBJECT_ID":"2020-065J","EPOCH":"2026-03-09T22:30:27.627264","MEAN_MOTION":15.75586121,"ECCENTRICITY":0.00041731,"INCLINATION":97.2394,"RA_OF_ASC_NODE":125.824,"ARG_OF_PERICENTER":135.626,"MEAN_ANOMALY":224.5341,"EPHEMERIS_TYPE":0,"CLASSIFICATION_TYPE":"U","NORAD_CAT_ID":46462,"ELEMENT_SET_NO":999,"REV_AT_EPOCH":30471,"BSTAR":0.0010197143,"MEAN_MOTION_DOT":0.00157536,"MEAN_MOTION_DDOT":0},{"OBJECT_NAME":"STARLINK-11611 [DTC]","OBJECT_ID":"2025-043G","EPOCH":"2026-03-09T12:00:36.100512","MEAN_MOTION":15.70906082,"ECCENTRICITY":0.00013263,"INCLINATION":42.9991,"RA_OF_ASC_NODE":251.7419,"ARG_OF_PERICENTER":243.2263,"MEAN_ANOMALY":116.8469,"EPHEMERIS_TYPE":0,"CLASSIFICATION_TYPE":"U","NORAD_CAT_ID":63138,"ELEMENT_SET_NO":999,"REV_AT_EPOCH":5944,"BSTAR":0.0017494902,"MEAN_MOTION_DOT":0.00231026,"MEAN_MOTION_DDOT":0}]
